STARLINK-36589          
1 67843U 26033Y   26063.05971371  .00128075  00000+0  60064-3 0  9993
2 67843  42.9971 305.8043 0001942 286.4993  73.5666 15.82056749  3735
STARLINK-36598          
1 67844U 26033Z   26063.05896607  .00302281  00000+0  13811-2 0  9992
2 67844  42.9971 305.7975 0001892 272.0076  88.0579 15.82130547  3739
STARLINK-36606          
1 67845U 26033AA  26063.05822017  .00162279  00000+0  75727-3 0  9993
2 67845  42.9972 305.7918 0001475 271.0960  88.9742 15.82060503  3731
STARLINK-36658          
1 67846U 26033AB  26063.12060132  .00262648  00000+0  12071-2 0  9997
2 67846  42.9968 305.3987 0001823 262.2390  97.8275 15.82108836  3748
STARLINK-36618          
1 67847U 26033AC  26063.16670139 -.00983433  30594-3 -22707-2 0  9992
2 67847  42.9858 303.4251 0002255 276.0113 293.0066 15.96286263  3773
STARLINK-36660          
1 67848U 26033AD  26063.05671704  .00223149  00000+0  10300-2 0  9990
2 67848  42.9971 305.7789 0002677 270.4481  89.6084 15.82121203  3737
STARLINK-36602          
1 67849U 26033AE  26063.05596984  .00243589  00000+0  11220-2 0  9999
2 67849  42.9970 305.7718 0002064 279.2694  80.7944 15.82112065  3735
STARLINK-36840          
1 67850U 26034A   26063.00001156  .00115368  00000+0  58285-3 0  9995
2 67850  53.1582 239.8736 0001183  77.0022  44.7888 15.80776374  2998
STARLINK-36348          
1 67851U 26034B   26063.16670139 -.00001870  00000+0 -59415-5 0  9998
2 67851  53.1589 239.0279 0001042  95.8564 259.3833 15.80861195  2971
STARLINK-36276          
1 67852U 26034C   26063.16670139  .00007833  00000+0  43196-4 0  9990
2 67852  53.1587 239.0189 0000904  66.3856 293.1217 15.80870102  2973
STARLINK-36785          
1 67853U 26034D   26063.16670139 -.00060314  00000+0 -30406-3 0  9995
2 67853  53.1588 239.0099 0000735  79.9797 283.8046 15.80882051  2973
STARLINK-36608          
1 67854U 26034E   26063.16670139  .00006660  00000+0  37295-4 0  9992
2 67854  53.1589 239.0010 0000825  96.8157 271.2484 15.80849201  2973
STARLINK-36838          
1 67855U 26034F   26063.16670139 -.00001877  00000+0 -59677-5 0  9999
2 67855  53.1590 238.9921 0001264  72.7941 299.5142 15.80875923  2971
STARLINK-36843          
1 67856U 26034G   26063.16670139 -.00066643  00000+0 -33665-3 0  9999
2 67856  53.1589 238.9746 0000501 103.4780 277.4044 15.80877944  2972
STARLINK-36828          
1 67857U 26034H   26063.16670139  .00011841  00000+0  63514-4 0  9995
2 67857  53.1589 238.9839 0001163  85.9013 290.7080 15.80851041  2972
STARLINK-36837          
1 67858U 26034J   26063.16670139 -.00098491  00000+0 -50065-3 0  9990
2 67858  53.1592 238.9649 0000827  85.0258 300.1190 15.80895316  2975
