[{"OBJECT_NAME":"STARLINK-36589","OBJECT_ID":"2026-033Y","EPOCH":"2026-03-04T01:25:59.264544","MEAN_MOTION":15.82056749,"ECCENTRICITY":0.0001942,"INCLINATION":42.9971,"RA_OF_ASC_NODE":305.8043,"ARG_OF_PERICENTER":286.4993,"MEAN_ANOMALY":73.5666,"EPHEMERIS_TYPE":0,"CLASSIFICATION_TYPE":"U","NORAD_CAT_ID":67843,"ELEMENT_SET_NO":999,"REV_AT_EPOCH":373,"BSTAR":0.00060064,"MEAN_MOTION_DOT":0.00128075,"MEAN_MOTION_DDOT":0},{"OBJECT_NAME":"STARLINK-36598","OBJECT_ID":"2026-033Z","EPOCH":"2026-03-04T01:24:54.668448","MEAN_MOTION":15.82130547,"ECCENTRICITY":0.0001892,"INCLINATION":42.9971,"RA_OF_ASC_NODE":305.7975,"ARG_OF_PERICENTER":272.0076,"MEAN_ANOMALY":88.0579,"EPHEMERIS_TYPE":0,"CLASSIFICATION_TYPE":"U","NORAD_CAT_ID":67844,"ELEMENT_SET_NO":999,"REV_AT_EPOCH":373,"BSTAR":0.0013811,"MEAN_MOTION_DOT":0.00302281,"MEAN_MOTION_DDOT":0},{"OBJECT_NAME":"STARLINK-36606","OBJECT_ID":"2026-033AA","EPOCH":"2026-03-04T01:23:50.222688","MEAN_MOTION":15.82060503,"ECCENTRICITY":0.0001475,"INCLINATION":42.9972,"RA_OF_ASC_NODE":305.7918,"ARG_OF_PERICENTER":271.096,"MEAN_ANOMALY":88.9742,"EPHEMERIS_TYPE":0,"CLASSIFICATION_TYPE":"U","NORAD_CAT_ID":67845,"ELEMENT_SET_NO":999,"REV_AT_EPOCH":373,"BSTAR":0.00075727,"MEAN_MOTION_DOT":0.00162279,"MEAN_MOTION_DDOT":0},{"OBJECT_NAME":"STARLINK-36658","OBJECT_ID":"2026-033AB","EPOCH":"2026-03-04T02:53:39.954048","MEAN_MOTION":15.82108836,"ECCENTRICITY":0.0001823,"INCLINATION":42.9968,"RA_OF_ASC_NODE":305.3987,"ARG_OF_PERICENTER":262.239,"MEAN_ANOMALY":97.8275,"EPHEMERIS_TYPE":0,"CLASSIFICATION_TYPE":"U","NORAD_CAT_ID":67846,"ELEMENT_SET_NO":999,"REV_AT_EPOCH":374,"BSTAR":0.0012071,"MEAN_MOTION_DOT":0.00262648,"MEAN_MOTION_DDOT":0},{"OBJECT_NAME":"STARLINK-36618","OBJECT_ID":"2026-033AC","EPOCH":"2026-03-04T04:00:03.000096","MEAN_MOTION":15.96286263,"ECCENTRICITY":0.0002255,"INCLINATION":42.9858,"RA_OF_ASC_NODE":303.4251,"ARG_OF_PERICENTER":276.0113,"MEAN_ANOMALY":293.0066,"EPHEMERIS_TYPE":0,"CLASSIFICATION_TYPE":"U","NORAD_CAT_ID":67847,"ELEMENT_SET_NO":999,"REV_AT_EPOCH":377,"BSTAR":-0.0022707,"MEAN_MOTION_DOT":-0.00983433,"MEAN_MOTION_DDOT":0.00030594},{"OBJECT_NAME":"STARLINK-36660","OBJECT_ID":"2026-033AD","EPOCH":"2026-03-04T01:21:40.352256","MEAN_MOTION":15.82121203,"ECCENTRICITY":0.0002677,"INCLINATION":42.9971,"RA_OF_ASC_NODE":305.7789,"ARG_OF_PERICENTER":270.4481,"MEAN_ANOMALY":89.6084,"EPHEMERIS_TYPE":0,"CLASSIFICATION_TYPE":"U","NORAD_CAT_ID":67848,"ELEMENT_SET_NO":999,"REV_AT_EPOCH":373,"BSTAR":0.00103,"MEAN_MOTION_DOT":0.00223149,"MEAN_MOTION_DDOT":0},{"OBJECT_NAME":"STARLINK-36602","OBJECT_ID":"2026-033AE","EPOCH":"2026-03-04T01:20:35.794176","MEAN_MOTION":15.82112065,"ECCENTRICITY":0.0002064,"INCLINATION":42.997,"RA_OF_ASC_NODE":305.7718,"ARG_OF_PERICENTER":279.2694,"MEAN_ANOMALY":80.7944,"EPHEMERIS_TYPE":0,"CLASSIFICATION_TYPE":"U","NORAD_CAT_ID":67849,"ELEMENT_SET_NO":999,"REV_AT_EPOCH":373,"BSTAR":0.001122,"MEAN_MOTION_DOT":0.00243589,"MEAN_MOTION_DDOT":0},{"OBJECT_NAME":"STARLINK-36840","OBJECT_ID":"2026-034A","EPOCH":"2026-03-04T00:00:00.998784","MEAN_MOTION":15.80776374,"ECCENTRICITY":0.0001183,"INCLINATION":53.1582,"RA_OF_ASC_NODE":239.8736,"ARG_OF_PERICENTER":77.0022,"MEAN_ANOMALY":44.7888,"EPHEMERIS_TYPE":0,"CLASSIFICATION_TYPE":"U","NORAD_CAT_ID":67850,"ELEMENT_SET_NO":999,"REV_AT_EPOCH":299,"BSTAR":0.00058285,"MEAN_MOTION_DOT":0.00115368,"MEAN_MOTION_DDOT":0},{"OBJECT_NAME":"STARLINK-36348","OBJECT_ID":"2026-034B","EPOCH":"2026-03-04T04:00:03.000096","MEAN_MOTION":15.80861195,"ECCENTRICITY":0.0001042,"INCLINATION":53.1589,"RA_OF_ASC_NODE":239.0279,"ARG_OF_PERICENTER":95.8564,"MEAN_ANOMALY":259.3833,"EPHEMERIS_TYPE":0,"CLASSIFICATION_TYPE":"U","NORAD_CAT_ID":67851,"ELEMENT_SET_NO":999,"REV_AT_EPOCH":297,"BSTAR":-5.9415e-6,"MEAN_MOTION_DOT":-1.87e-5,"MEAN_MOTION_DDOT":0},{"OBJECT_NAME":"STARLINK-36276","OBJECT_ID":"2026-034C","EPOCH":"2026-03-04T04:00:03.000096","MEAN_MOTION":15.80870102,"ECCENTRICITY":9.04e-5,"INCLINATION":53.1587,"RA_OF_ASC_NODE":239.0189,"ARG_OF_PERICENTER":66.3856,"MEAN_ANOMALY":293.1217,"EPHEMERIS_TYPE":0,"CLASSIFICATION_TYPE":"U","NORAD_CAT_ID":67852,"ELEMENT_SET_NO":999,"REV_AT_EPOCH":297,"BSTAR":4.3196e-5,"MEAN_MOTION_DOT":7.833e-5,"MEAN_MOTION_DDOT":0},{"OBJECT_NAME":"STARLINK-36785","OBJECT_ID":"2026-034D","EPOCH":"2026-03-04T04:00:03.000096","MEAN_MOTION":15.80882051,"ECCENTRICITY":7.35e-5,"INCLINATION":53.1588,"RA_OF_ASC_NODE":239.0099,"ARG_OF_PERICENTER":79.9797,"MEAN_ANOMALY":283.8046,"EPHEMERIS_TYPE":0,"CLASSIFICATION_TYPE":"U","NORAD_CAT_ID":67853,"ELEMENT_SET_NO":999,"REV_AT_EPOCH":297,"BSTAR":-0.00030406,"MEAN_MOTION_DOT":-0.00060314,"MEAN_MOTION_DDOT":0},{"OBJECT_NAME":"STARLINK-36608","OBJECT_ID":"2026-034E","EPOCH":"2026-03-04T04:00:03.000096","MEAN_MOTION":15.80849201,"ECCENTRICITY":8.25e-5,"INCLINATION":53.1589,"RA_OF_ASC_NODE":239.001,"ARG_OF_PERICENTER":96.8157,"MEAN_ANOMALY":271.2484,"EPHEMERIS_TYPE":0,"CLASSIFICATION_TYPE":"U","NORAD_CAT_ID":67854,"ELEMENT_SET_NO":999,"REV_AT_EPOCH":297,"BSTAR":3.7295e-5,"MEAN_MOTION_DOT":6.66e-5,"MEAN_MOTION_DDOT":0},{"OBJECT_NAME":"STARLINK-36838","OBJECT_ID":"2026-034F","EPOCH":"2026-03-04T04:00:03.000096","MEAN_MOTION":15.80875923,"ECCENTRICITY":0.0001264,"INCLINATION":53.159,"RA_OF_ASC_NODE":238.9921,"ARG_OF_PERICENTER":72.7941,"MEAN_ANOMALY":299.5142,"EPHEMERIS_TYPE":0,"CLASSIFICATION_TYPE":"U","NORAD_CAT_ID":67855,"ELEMENT_SET_NO":999,"REV_AT_EPOCH":297,"BSTAR":-5.9677e-6,"MEAN_MOTION_DOT":-1.877e-5,"MEAN_MOTION_DDOT":0},{"OBJECT_NAME":"STARLINK-36843","OBJECT_ID":"2026-034G","EPOCH":"2026-03-04T04:00:03.000096","MEAN_MOTION":15.80877944,"ECCENTRICITY":5.01e-5,"INCLINATION":53.1589,"RA_OF_ASC_NODE":238.9746,"ARG_OF_PERICENTER":103.478,"MEAN_ANOMALY":277.4044,"EPHEMERIS_TYPE":0,"CLASSIFICATION_TYPE":"U","NORAD_CAT_ID":67856,"ELEMENT_SET_NO":999,"REV_AT_EPOCH":297,"BSTAR":-0.00033665,"MEAN_MOTION_DOT":-0.00066643,"MEAN_MOTION_DDOT":0},{"OBJECT_NAME":"STARLINK-36828","OBJECT_ID":"2026-034H","EPOCH":"2026-03-04T04:00:03.000096","MEAN_MOTION":15.80851041,"ECCENTRICITY":0.0001163,"INCLINATION":53.1589,"RA_OF_ASC_NODE":238.9839,"ARG_OF_PERICENTER":85.9013,"MEAN_ANOMALY":290.708,"EPHEMERIS_TYPE":0,"CLASSIFICATION_TYPE":"U","NORAD_CAT_ID":67857,"ELEMENT_SET_NO":999,"REV_AT_EPOCH":297,"BSTAR":6.3514e-5,"MEAN_MOTION_DOT":0.00011841,"MEAN_MOTION_DDOT":0},{"OBJECT_NAME":"STARLINK-36837","OBJECT_ID":"2026-034J","EPOCH":"2026-03-04T04:00:03.000096","MEAN_MOTION":15.80895316,"ECCENTRICITY":8.27e-5,"INCLINATION":53.1592,"RA_OF_ASC_NODE":238.9649,"ARG_OF_PERICENTER":85.0258,"MEAN_ANOMALY":300.119,"EPHEMERIS_TYPE":0,"CLASSIFICATION_TYPE":"U","NORAD_CAT_ID":67858,"ELEMENT_SET_NO":999,"REV_AT_EPOCH":297,"BSTAR":-0.00050065,"MEAN_MOTION_DOT":-0.00098491,"MEAN_MOTION_DDOT":0}]
